[{"OBJECT_NAME":"EXO-0","OBJECT_ID":"2023-174DK","EPOCH":"2026-03-09T17:03:04.419648","MEAN_MOTION":15.32821991,"ECCENTRICITY":0.00098779,"INCLINATION":97.3864,"RA_OF_ASC_NODE":148.9039,"ARG_OF_PERICENTER":157.1125,"MEAN_ANOMALY":203.0559,"EPHEMERIS_TYPE":0,"CLASSIFICATION_TYPE":"U","NORAD_CAT_ID":59175,"ELEMENT_SET_NO":999,"REV_AT_EPOCH":12979,"BSTAR":0.00036716083,"MEAN_MOTION_DOT":0.00011582,"MEAN_MOTION_DDOT":0},{"OBJECT_NAME":"STARLINK-31591","OBJECT_ID":"2024-046G","EPOCH":"2026-03-09T12:16:23.729664","MEAN_MOTION":15.30185711,"ECCENTRICITY":9.043e-5,"INCLINATION":53.1598,"RA_OF_ASC_NODE":156.0696,"ARG_OF_PERICENTER":69.9952,"MEAN_ANOMALY":290.1146,"EPHEMERIS_TYPE":0,"CLASSIFICATION_TYPE":"U","NORAD_CAT_ID":59207,"ELEMENT_SET_NO":999,"REV_AT_EPOCH":11302,"BSTAR":3.173247e-5,"MEAN_MOTION_DOT":5.81e-6,"MEAN_MOTION_DDOT":0}]
