EXO-0                   
1 59175U 23174DK  26068.71046781  .00011582  00000+0  36716-3 0  9992
2 59175  97.3864 148.9039 0009878 157.1125 203.0559 15.32821991129797
STARLINK-31591          
1 59207U 24046G   26068.51138576  .00000581  00000+0  31732-4 0  9990
2 59207  53.1598 156.0696 0000904  69.9952 290.1146 15.30185711113024
